HAWK-A                  
1 43765U 18099H   26068.67628545  .00008617  00000+0  36104-3 0  9995
2 43765  97.4051 122.2425 0034260 275.5523  84.1807 15.23231043397949
STARLINK-31880          
1 59661U 24084H   26068.28949361  .00000176  00000+0  15926-4 0  9999
2 59661  43.0046  40.4529 0001888 270.5346  89.5289 15.27585034104356
